STARLINK-2622           
1 48360U 21038H   24193.76279627  .00000426  00000+0  47511-4 0  9993
2 48360  53.0539 201.7273 0001284  90.3862 269.7274 15.06393494176288
STARLINK-2591           
1 48361U 21038J   24194.28988372  .00001380  00000+0  11152-3 0  9997
2 48361  53.0537 199.3611 0001189  91.6029 268.5097 15.06395826176368
STARLINK-2578           
1 48362U 21038K   24194.38940350 -.00004244  00000+0 -26621-3 0  9994
2 48362  53.0533 199.0013 0001607  93.4819 266.6353 15.06393740176389
STARLINK-2626           
1 48363U 21038L   24193.73560864  .00000232  00000+0  34442-4 0  9993
2 48363  53.0540 196.8531 0001376  85.2597 274.8549 15.06396559176359
STARLINK-2611           
1 48364U 21038M   24194.21108361  .00005141  00000+0  36356-3 0  9997
2 48364  53.0544 194.8760 0001325  96.8342 263.2798 15.06423226176424
STARLINK-2608           
1 48365U 21038N   24194.30693774  .00001149  00000+0  96001-4 0  9993
2 48365  53.0541 194.2835 0001184  89.6477 270.4648 15.06392797176445
STARLINK-2631           
1 48366U 21038P   24194.29448503  .00001184  00000+0  98327-4 0  9992
2 48366  53.0539 189.3428 0001410  94.2589 265.8561 15.06408463176501
STARLINK-2643           
1 48367U 21038Q   24194.22445212 -.00000059  00000+0  14910-4 0  9997
2 48367  53.0544 189.6571 0001441  89.7175 270.3979 15.06401408176498
STARLINK-2623           
1 48368U 21038R   24194.20236659  .00000427  00000+0  47539-4 0  9990
2 48368  53.0546 190.0348 0001284  99.8753 260.2381 15.06404729176492
STARLINK-2641           
1 48369U 21038S   24194.28711392  .00000214  00000+0  33227-4 0  9994
2 48369  53.0541 189.3756 0001249  71.8848 288.2276 15.06400259176507
STARLINK-2621           
1 48370U 21038T   24194.28343237 -.00000396  00000+0 -76706-5 0  9998
2 48370  53.0543 189.3914 0001298  84.7834 275.3303 15.06401939176503
STARLINK-2589           
1 48371U 21038U   24194.21339372 -.00000337  00000+0 -37278-5 0  9993
2 48371  53.0540 189.7072 0001347  83.8604 276.2538 15.06401547176493
STARLINK-2572           
1 48372U 21038V   24194.53415297  .00000976  00000+0  12912-4 0  9994
2 48372  53.0534 134.7070 0001103 106.3218 253.7920 15.69723641177281
STARLINK-2609           
1 48373U 21038W   24194.27236672  .00000890  00000+0  78595-4 0  9998
2 48373  53.0538 189.4419 0001275  90.7621 269.3514 15.06407122176504
STARLINK-2604           
1 48374U 21038X   24194.16920744  .00000543  00000+0  55335-4 0  9999
2 48374  53.0543 190.2547 0001215  99.7326 260.3800 15.06399022176483
STARLINK-2603           
1 48375U 21038Y   24194.19864869  .00000181  00000+0  31060-4 0  9995
2 48375  53.0542 189.7744 0001090  81.2262 278.8851 15.06403597176495
STARLINK-2610           
1 48376U 21038Z   24194.39400043  .00000599  00000+0  59083-4 0  9996
2 48376  53.0542 188.8951 0001293  92.4384 267.6753 15.06404726176526
STARLINK-2499           
1 48377U 21038AA  24194.17291157 -.00000039  00000+0  16273-4 0  9991
2 48377  53.0530 190.3895 0001079  70.3023 289.8082 15.06403091176486
STARLINK-2526           
1 48378U 21038AB  24194.18759182  .00000204  00000+0  32597-4 0  9990
2 48378  53.0541 189.8213 0001345  85.1117 275.0025 15.06401467176490
STARLINK-2612           
1 48379U 21038AC  24194.18390693  .00000710  00000+0  66532-4 0  9997
2 48379  53.0537 189.8344 0001343  86.6845 273.4298 15.06400903176491
STARLINK-2614           
1 48380U 21038AD  24193.72691776  .00001169  00000+0  97380-4 0  9998
2 48380  53.0538 192.3990 0001412  87.3203 272.7947 15.06397780175820
STARLINK-2630           
1 48381U 21038AE  24194.24659709 -.00001937  00000+0 -11128-3 0  9997
2 48381  53.0538 189.5560 0001353  95.8603 264.2541 15.06375607176500
STARLINK-2585           
1 48382U 21038AF  24194.24288238  .00001181  00000+0  98136-4 0  9997
2 48382  53.0534 189.5728 0001397  92.4447 267.6702 15.06402483176509
STARLINK-2599           
1 48383U 21038AG  24194.25001157  .00301526  00000+0  14209-2 0  9995
2 48383  53.0448 134.6262 0003776 110.9092 283.1681 15.81727275177257
STARLINK-2598           
1 48385U 21038AJ  24194.16547901  .00000281  00000+0  37783-4 0  9997
2 48385  53.0547 189.9244 0001409  96.6372 263.4778 15.06399904176487
STARLINK-2606           
1 48386U 21038AK  24194.21938659  .00000240  00000+0  35016-4 0  9990
2 48386  53.0543 184.6907 0001304  80.2066 279.9070 15.06401869176565
STARLINK-2600           
1 48387U 21038AL  24194.24888541  .00008955  00000+0  61893-3 0  9990
2 48387  53.0532 184.5130 0001699  56.6879 303.4273 15.06422738176574
STARLINK-2594           
1 48388U 21038AM  24194.37789151  .00007110  00000+0  49625-3 0  9993
2 48388  53.0548 183.9668 0001758  96.7866 263.3323 15.06360421176590
STARLINK-1904           
1 48389U 21038AN  24194.22122140 -.00000929  00000+0 -29091-4 0  9996
2 48389  53.0535 178.1516 0001312  99.4074 260.7069 15.18714009176655
STARLINK-2586           
1 48390U 21038AP  24194.22905672  .00000106  00000+0  26013-4 0  9993
2 48390  53.0529 179.6333 0001304  94.2485 265.8653 15.06404270176639
STARLINK-2607           
1 48391U 21038AQ  24194.22537768 -.00000210  00000+0  47898-5 0  9993
2 48391  53.0537 179.6496 0001056  91.5012 268.6098 15.06398736176621
STARLINK-2605           
1 48392U 21038AR  24194.22168827  .00000855  00000+0  76288-4 0  9998
2 48392  53.0529 179.6652 0001192  90.7949 269.3177 15.06402756176633
STARLINK-2602           
1 48393U 21038AS  24194.21800276  .00000921  00000+0  80740-4 0  9991
2 48393  53.0537 179.6830 0001397  90.6620 269.4529 15.06401869176639
STARLINK-2573           
1 48394U 21038AT  24194.21431390  .00001105  00000+0  93059-4 0  9991
2 48394  53.0536 179.7051 0001088  95.5919 264.5194 15.06403939176631
STARLINK-2574           
1 48395U 21038AU  24194.19228049  .00000383  00000+0  44589-4 0  9995
2 48395  53.0543 180.4274 0001206  93.3821 266.7306 15.06401165176623
STARLINK-2575           
1 48396U 21038AV  24194.21062956  .00002135  00000+0  16216-3 0  9994
2 48396  53.0539 179.7169 0001020  85.0247 275.0858 15.06397865176634
STARLINK-2590           
1 48397U 21038AW  24194.20694470  .00000376  00000+0  44132-4 0  9990
2 48397  53.0542 179.7342 0001402  85.0649 275.0500 15.06403068176639
STARLINK-2588           
1 48398U 21038AX  24194.20326612 -.00000315  00000+0 -22244-5 0  9997
2 48398  53.0548 179.7518 0001373  77.2479 282.8664 15.06397552176639
STARLINK-2587           
1 48399U 21038AY  24194.19957898  .00000807  00000+0  73055-4 0  9991
2 48399  53.0551 179.7717 0001399  97.2673 262.8475 15.06399319176632
STARLINK-2576           
1 48400U 21038AZ  24194.19588319 -.00002655  00000+0 -15939-3 0  9993
2 48400  53.0547 179.7870 0001464  93.6030 266.5126 15.06402993176637
STARLINK-2571           
1 48401U 21038BA  24194.23275112  .00000875  00000+0  77610-4 0  9998
2 48401  53.0545 179.6258 0001481  94.5252 265.5906 15.06404143176634
STARLINK-2560           
1 48402U 21038BB  24194.20726430  .00002183  00000+0  22882-4 0  9995
2 48402  53.0542 126.4092 0001414  93.6122 266.5056 15.69705261177373
STARLINK-2561           
1 48403U 21038BC  24194.18857252 -.00010968  00000+0 -71980-3 0  9994
2 48403  53.0549 179.8125 0001457 111.6119 248.5025 15.06335477176637
STARLINK-2593           
1 48404U 21038BD  24194.25117434  .00000388  00000+0  44942-4 0  9996
2 48404  53.0543 179.5385 0001130  88.4318 271.6801 15.06405054176646
STARLINK-2570           
1 48405U 21038BE  24194.24748748  .00000345  00000+0  42069-4 0  9995
2 48405  53.0537 179.5529 0001382  90.9113 269.2034 15.06401553176641
STARLINK-2568           
1 48406U 21038BF  24194.24380044  .00000264  00000+0  36638-4 0  9992
2 48406  53.0541 179.5717 0001326  91.9345 268.1796 15.06403954176642
STARLINK-2595           
1 48407U 21038BG  24194.35500005 -.00000044  00000+0  15777-4 0  9994
2 48407  53.0536 178.1995 0001356  89.1255 270.9890 15.06979059176664
STARLINK-2592           
1 48408U 21038BH  24194.23642646  .00000234  00000+0  34578-4 0  9990
2 48408  53.0548 179.6019 0001401  99.1273 260.9875 15.06405624176634
STARLINK-2596           
1 48409U 21038BJ  24193.37231243  .00000506  00000+0  20196-4 0  9995
2 48409  53.0538 182.5824 0001129  94.6341 265.4793 15.43691167176510
STARLINK-2563           
1 48410U 21038BK  24194.13183968  .00001420  00000+0  11418-3 0  9994
2 48410  53.0548 135.0717 0001460  93.4567 266.6589 15.06412120177259
STARLINK-2505           
1 48411U 21038BL  24194.21523433 -.00000939  00000+0 -44144-4 0  9998
2 48411  53.0543 129.6982 0001361  95.8785 264.2359 15.06402719177337
STARLINK-2581           
1 48412U 21038BM  24194.10102859  .00000762  00000+0  70060-4 0  9990
2 48412  53.0562 130.6438 0001519  97.3751 262.7410 15.06407373177312
STARLINK-2461           
1 48428U 21040A   24193.84343335 -.00000544  00000+0 -17648-4 0  9999
2 48428  53.0568  26.3675 0001782 101.0536 259.0654 15.06394753176523
STARLINK-2749           
1 48429U 21040B   24194.47648714 -.00000119  00000+0  10937-4 0  9990
2 48429  53.0587 353.5410 0002402 104.0809 256.0447 15.06394433177032
STARLINK-2700           
1 48431U 21040D   24194.45573074  .00003103  00000+0  22713-3 0  9996
2 48431  53.0586 348.6232 0001538  96.5559 263.5605 15.06395375176277
STARLINK-2680           
1 48432U 21040E   24194.56960709  .00002247  00000+0  16976-3 0  9996
2 48432  53.0565 343.4931 0001621 119.8848 240.2302 15.06389931176511
STARLINK-2699           
1 48433U 21040F   24194.44933299  .00002012  00000+0  15394-3 0  9991
2 48433  53.0557 348.9265 0001278  83.8071 276.3063 15.06402491176420
STARLINK-2692           
1 48434U 21040G   24194.14849969  .00004098  00000+0  29385-3 0  9990
2 48434  53.0555 355.5059 0001231  77.8202 282.2925 15.06397908176151
STARLINK-2633           
1 48435U 21040H   24194.48662539  .00002605  00000+0  19372-3 0  9991
2 48435  53.0540   3.4881 0001371  81.4314 278.6831 15.06401034176890
